NORAD_CAT_ID,OBJECT_NAME,OBJECT_TYPE,EPOCH,MEAN_MOTION,ECCENTRICITY,INCLINATION,RA_OF_ASC_NODE,ARG_OF_PERICENTER,MEAN_ANOMALY,BSTAR,MEAN_MOTION_DOT,MEAN_MOTION_DDOT,TLE_LINE0,TLE_LINE1,TLE_LINE2,SEMIMAJOR_AXIS,PERIOD,APOGEE,PERIGEE,DECAYED
52484.0,STARLINK-3887,PAYLOAD,2023-08-19 04:03:59,15.08842311,0.0001062,53.2153,289.8542,90.9607,269.1507,0.00029945,4.481e-05,0.0,0 STARLINK-3887,1 52484U 22049AK  23231.16943672  .00004481  00000-0  29945-3 0  9998,2 52484  53.2153 289.8542 0001062  90.9607 269.1507 15.08842311 71485,6917.873,95.437,540.473,539.004,0.0
52484.0,STARLINK-3887,PAYLOAD,2023-08-20 10:16:19,15.08840813,0.0001085,53.2156,284.2042,93.6737,266.4379,0.00013764,1.903e-05,0.0,0 STARLINK-3887,1 52484U 22049AK  23232.42799811  .00001903  00000-0  13764-3 0  9990,2 52484  53.2156 284.2042 0001085  93.6737 266.4379 15.08840813 71674,6917.878,95.438,540.493,538.992,0.0
52484.0,STARLINK-3887,PAYLOAD,2023-08-22 09:57:53,15.08841871,0.0001166,53.216,275.2818,93.8567,266.2559,0.00013169,1.809e-05,0.0,0 STARLINK-3887,1 52484U 22049AK  23234.41519899  .00001809  00000-0  13169-3 0  9991,2 52484  53.2160 275.2818 0001166  93.8567 266.2559 15.08841871 71979,6917.875,95.437,540.546,538.933,0.0
52484.0,STARLINK-3887,PAYLOAD,2023-08-23 11:24:03,15.08843303,0.0001211,53.2158,270.5248,89.9045,270.2086,0.00012921,1.769e-05,0.0,0 STARLINK-3887,1 52484U 22049AK  23235.47503865  .00001769  00000-0  12921-3 0  9994,2 52484  53.2158 270.5248 0001211  89.9045 270.2086 15.08843303 72130,6917.87,95.437,540.573,538.898,0.0
52484.0,STARLINK-3887,PAYLOAD,2023-08-24 11:14:50,15.08840302,0.0001198,53.2162,266.0648,85.3594,274.7535,7.4362e-05,8.96e-06,0.0,0 STARLINK-3887,1 52484U 22049AK  23236.46864417  .00000896  00000-0  74362-4 0  9995,2 52484  53.2162 266.0648 0001198  85.3594 274.7535 15.08840302 72125,6917.879,95.438,540.573,538.916,0.0
52484.0,STARLINK-3887,PAYLOAD,2023-08-25 11:05:37,15.0884354,0.0001243,53.216,261.6046,82.8885,277.2248,7.8134e-05,9.56e-06,0.0,0 STARLINK-3887,1 52484U 22049AK  23237.46224287  .00000956  00000-0  78134-4 0  9999,2 52484  53.2160 261.6046 0001243  82.8885 277.2248 15.08843540 72274,6917.87,95.437,540.594,538.875,0.0
52484.0,STARLINK-3887,PAYLOAD,2023-08-26 10:56:24,15.08846975,0.0001257,53.2159,257.1437,83.479,276.6345,0.00014741,2.059e-05,0.0,0 STARLINK-3887,1 52484U 22049AK  23238.45583917  .00002059  00000-0  14741-3 0  9996,2 52484  53.2159 257.1437 0001257  83.4790 276.6345 15.08846975 72426,6917.859,95.437,540.594,538.854,0.0
52484.0,STARLINK-3887,PAYLOAD,2023-08-27 04:25:39,15.08840954,0.0001273,53.216,253.8726,86.4269,273.6869,5.7936e-05,6.34e-06,0.0,0 STARLINK-3887,1 52484U 22049AK  23239.18448480  .00000634  00000-0  57936-4 0  9993,2 52484  53.2160 253.8726 0001273  86.4269 273.6869 15.08840954 72692,6917.877,95.437,540.623,538.862,0.0
52484.0,STARLINK-3887,PAYLOAD,2023-08-27 10:47:11,15.08844012,0.0001298,53.216,252.6833,85.6581,274.4559,7.971e-05,9.81e-06,0.0,0 STARLINK-3887,1 52484U 22049AK  23239.44944186  .00000981  00000-0  79710-4 0  9995,2 52484  53.2160 252.6833 0001298  85.6581 274.4559 15.08844012 72574,6917.868,95.437,540.631,538.835,0.0
52484.0,STARLINK-3887,PAYLOAD,2023-08-28 07:27:12,15.08839123,0.0001431,53.2167,248.8177,94.4353,265.6802,1.1768e-05,-1.01e-06,0.0,0 STARLINK-3887,1 52484U 22049AK  23240.31056590 -.00000101  00000-0  11768-4 0  9990,2 52484  53.2167 248.8177 0001431  94.4353 265.6802 15.08839123 72865,6917.883,95.438,540.738,538.758,0.0
52484.0,STARLINK-3887,PAYLOAD,2023-08-28 12:13:22,15.0884086,0.0001393,53.2164,247.9252,93.4369,266.6783,2.0147e-05,3.3e-07,0.0,0 STARLINK-3887,1 52484U 22049AK  23240.50928430  .00000033  00000-0  20147-4 0  9996,2 52484  53.2164 247.9252 0001393  93.4369 266.6783 15.08840860 72734,6917.878,95.438,540.706,538.779,0.0
52484.0,STARLINK-3887,PAYLOAD,2023-08-29 10:28:45,15.0884275,0.0001382,53.2162,243.7623,93.1417,266.9733,7.0126e-05,8.28e-06,0.0,0 STARLINK-3887,1 52484U 22049AK  23241.43664244  .00000828  00000-0  70126-4 0  9993,2 52484  53.2162 243.7623 0001382  93.1417 266.9733 15.08842750 73039,6917.872,95.437,540.693,538.781,0.0
52484.0,STARLINK-3887,PAYLOAD,2023-08-30 02:22:38,15.08830526,0.0001371,53.216,240.7879,92.8081,267.3068,8.6137e-06,-1.51e-06,0.0,0 STARLINK-3887,1 52484U 22049AK  23242.09905380 -.00000151  00000-0  86137-5 0  9995,2 52484  53.2160 240.7879 0001371  92.8081 267.3068 15.08830526 73133,6917.909,95.438,540.723,538.826,0.0
52484.0,STARLINK-3887,PAYLOAD,2023-08-30 16:41:06,15.08833349,0.0001487,53.2164,238.1121,93.8224,266.2938,1.3482e-05,-7.3e-07,0.0,0 STARLINK-3887,1 52484U 22049AK  23242.69521441 -.00000073  00000-0  13482-4 0  9998,2 52484  53.2164 238.1121 0001487  93.8224 266.2938 15.08833349 73068,6917.901,95.438,540.794,538.737,0.0
52484.0,STARLINK-3887,PAYLOAD,2023-08-31 02:13:24,15.08851032,0.0001526,53.2168,236.3279,108.5068,251.609,0.00015124,2.121e-05,0.0,0 STARLINK-3887,1 52484U 22049AK  23243.09264048  .00002121  00000-0  15124-3 0  9999,2 52484  53.2168 236.3279 0001526 108.5068 251.6090 15.08851032 73280,6917.847,95.437,540.767,538.656,0.0
52484.0,STARLINK-3887,PAYLOAD,2023-08-31 08:34:57,15.08840299,0.0001465,53.2167,235.1384,108.4579,251.6572,6.4163e-05,7.33e-06,0.0,0 STARLINK-3887,1 52484U 22049AK  23243.35760955  .00000733  00000-0  64163-4 0  9991,2 52484  53.2167 235.1384 0001465 108.4579 251.6572 15.08840299 73324,6917.879,95.438,540.758,538.731,0.0
52484.0,STARLINK-3887,PAYLOAD,2023-09-01 11:36:30,15.08847338,0.0001422,53.2169,230.0832,90.762,269.3535,1.078e-05,-1.16e-06,0.0,0 STARLINK-3887,1 52484U 22049AK  23244.48368912 -.00000116  00000-0  10780-4 0  9995,2 52484  53.2169 230.0832 0001422  90.7620 269.3535 15.08847338 73338,6917.858,95.437,540.707,538.739,0.0
52484.0,STARLINK-3887,PAYLOAD,2023-09-01 16:22:38,15.08871829,9.7e-05,53.2169,229.1925,119.5367,240.5722,0.00011827,1.597e-05,0.0,0 STARLINK-3887,1 52484U 22049AK  23244.68238824  .00001597  00000-0  11827-3 0  9990,2 52484  53.2169 229.1925 0000970 119.5367 240.5722 15.08871829 73527,6917.783,95.436,540.319,538.977,0.0
52484.0,STARLINK-3887,PAYLOAD,2023-09-02 08:16:31,15.08850045,0.0001383,53.2156,226.2171,86.7766,273.3385,0.00010766,1.426e-05,0.0,0 STARLINK-3887,1 52484U 22049AK  23245.34480433  .00001426  00000-0  10766-3 0  9991,2 52484  53.2156 226.2171 0001383  86.7766 273.3385 15.08850045 73628,6917.85,95.437,540.671,538.758,0.0
52484.0,STARLINK-3887,PAYLOAD,2023-09-02 16:13:27,15.08842916,0.0001577,53.2147,224.7306,72.9758,287.1407,5.2868e-05,5.54e-06,0.0,0 STARLINK-3887,1 52484U 22049AK  23245.67601025  .00000554  00000-0  52868-4 0  9990,2 52484  53.2147 224.7306 0001577  72.9758 287.1407 15.08842916 73675,6917.871,95.437,540.827,538.646,0.0
52484.0,STARLINK-3887,PAYLOAD,2023-09-03 09:42:41,15.08846386,0.0001534,53.2162,221.4569,101.4227,258.6938,6.3913e-05,7.29e-06,0.0,0 STARLINK-3887,1 52484U 22049AK  23246.40464603  .00000729  00000-0  63913-4 0  9998,2 52484  53.2162 221.4569 0001534 101.4227 258.6938 15.08846386 73621,6917.861,95.437,540.787,538.665,0.0
52484.0,STARLINK-3887,PAYLOAD,2023-09-03 16:04:15,15.08831203,0.000181,53.2148,220.2695,87.702,272.418,-7.5869e-05,-1.495e-05,0.0,0 STARLINK-3887,1 52484U 22049AK  23246.66962141 -.00001495  00000-0 -75869-4 0  9992,2 52484  53.2148 220.2695 0001810  87.7020 272.4180 15.08831203 73823,6917.907,95.438,541.024,538.52,0.0
52484.0,STARLINK-3887,PAYLOAD,2023-09-04 07:58:06,15.08836516,0.0001567,53.2166,217.2966,89.113,271.0041,-3.5312e-05,-8.5e-06,0.0,0 STARLINK-3887,1 52484U 22049AK  23247.33201776 -.00000850  00000-0 -35312-4 0  9990,2 52484  53.2166 217.2966 0001567  89.1130 271.0041 15.08836516 73921,6917.891,95.438,540.84,538.672,0.0
52484.0,STARLINK-3887,PAYLOAD,2023-09-05 04:38:06,15.08839894,0.0001357,53.2166,213.4309,91.5185,268.5963,9.5663e-05,1.235e-05,0.0,0 STARLINK-3887,1 52484U 22049AK  23248.19313346  .00001235  00000-0  95663-4 0  9993,2 52484  53.2166 213.4309 0001357  91.5185 268.5963 15.08839894 74055,6917.881,95.438,540.684,538.807,0.0
52484.0,STARLINK-3887,PAYLOAD,2023-09-06 01:18:08,15.08833083,0.0001452,53.2168,209.5658,89.6651,270.4508,0.00010001,1.304e-05,0.0,0 STARLINK-3887,1 52484U 22049AK  23249.05426016  .00001304  00000-0  10001-3 0  9997,2 52484  53.2168 209.5658 0001452  89.6651 270.4508 15.08833083 74187,6917.902,95.438,540.771,538.762,0.0
52484.0,STARLINK-3887,PAYLOAD,2023-09-06 04:28:54,15.08836437,0.0001485,53.2168,208.971,90.6969,269.4193,0.00012098,1.638e-05,0.0,0 STARLINK-3887,1 52484U 22049AK  23249.18673846  .00001638  00000-0  12098-3 0  9994,2 52484  53.2168 208.9710 0001485  90.6969 269.4193 15.08836437 74048,6917.891,95.438,540.784,538.729,0.0
52484.0,STARLINK-3887,PAYLOAD,2023-09-07 07:30:27,15.08843279,0.0001436,53.2166,203.9151,86.2451,273.8705,4.3438e-05,4.03e-06,0.0,0 STARLINK-3887,1 52484U 22049AK  23250.31281830  .00000403  00000-0  43438-4 0  9991,2 52484  53.2166 203.9151 0001436  86.2451 273.8705 15.08843279 74379,6917.87,95.437,540.729,538.742,0.0
52484.0,STARLINK-3887,PAYLOAD,2023-09-08 02:35:05,15.08829445,0.0001559,53.2175,200.3449,88.0788,272.0383,0.00018312,2.627e-05,0.0,0 STARLINK-3887,1 52484U 22049AK  23251.10770252  .00002627  00000-0  18312-3 0  9992,2 52484  53.2175 200.3449 0001559  88.0788 272.0383 15.08829445 74494,6917.913,95.438,540.856,538.699,0.0
52484.0,STARLINK-3887,PAYLOAD,2023-09-08 05:45:52,15.08802299,0.000183,53.2182,199.7502,88.619,271.5011,0.0006364,9.844e-05,0.0,0 STARLINK-3887,1 52484U 22049AK  23251.24018684  .00009844  00000-0  63640-3 0  9993,2 52484  53.2182 199.7502 0001830  88.6190 271.5011 15.08802299 74511,6917.996,95.44,541.127,538.595,0.0
52484.0,STARLINK-3887,PAYLOAD,2023-09-09 02:25:52,15.08849857,0.0001331,53.2178,195.8865,84.5933,275.5211,-2.8769e-05,-7.46e-06,0.0,0 STARLINK-3887,1 52484U 22049AK  23252.10129792 -.00000746  00000-0 -28769-4 0  9990,2 52484  53.2178 195.8865 0001331  84.5933 275.5211 15.08849857 74642,6917.85,95.437,540.636,538.794,0.0
